{
    "links": {
        "self": "http://www.neowsapp.com/rest/v1/neo/3249183?api_key=iIulBulltgU6a56xZRHN4H3l9WmuAYTsLGpBGhQ2"
    },
    "id": "3249183",
    "neo_reference_id": "3249183",
    "name": "(2004 PF20)",
    "designation": "2004 PF20",
    "nasa_jpl_url": "http://ssd.jpl.nasa.gov/sbdb.cgi?sstr=3249183",
    "absolute_magnitude_h": 22.5,
    "estimated_diameter": {
        "kilometers": {
            "estimated_diameter_min": 0.0840533402,
            "estimated_diameter_max": 0.1879489824
        },
        "meters": {
            "estimated_diameter_min": 84.0533402073,
            "estimated_diameter_max": 187.9489824394
        },
        "miles": {
            "estimated_diameter_min": 0.0522283081,
            "estimated_diameter_max": 0.1167860472
        },
        "feet": {
            "estimated_diameter_min": 275.7655606856,
            "estimated_diameter_max": 616.6305395464
        }
    },
    "is_potentially_hazardous_asteroid": false,
    "close_approach_data": [
        {
            "close_approach_date": "2000-08-15",
            "close_approach_date_full": "2000-Aug-15 18:59",
            "epoch_date_close_approach": 966365940000,
            "relative_velocity": {
                "kilometers_per_second": "15.4910143857",
                "kilometers_per_hour": "55767.651788551",
                "miles_per_hour": "34651.8500793916"
            },
            "miss_distance": {
                "astronomical": "0.3787936081",
                "lunar": "147.3507135509",
                "kilometers": "56666716.941374747",
                "miles": "35211065.1485836286"
            },
            "orbiting_body": "Earth"
        },
        {
            "close_approach_date": "2002-08-09",
            "close_approach_date_full": "2002-Aug-09 07:39",
            "epoch_date_close_approach": 1028878740000,
            "relative_velocity": {
                "kilometers_per_second": "11.5230053381",
                "kilometers_per_hour": "41482.8192173396",
                "miles_per_hour": "25775.8106409075"
            },
            "miss_distance": {
                "astronomical": "0.1813425958",
                "lunar": "70.5422697662",
                "kilometers": "27128466.071950946",
                "miles": "16856847.1547212148"
            },
            "orbiting_body": "Earth"
        },
        {
            "close_approach_date": "2004-08-02",
            "close_approach_date_full": "2004-Aug-02 23:48",
            "epoch_date_close_approach": 1091490480000,
            "relative_velocity": {
                "kilometers_per_second": "9.5397637029",
                "kilometers_per_hour": "34343.1493305447",
                "miles_per_hour": "21339.4974270821"
            },
            "miss_distance": {
                "astronomical": "0.1320560745",
                "lunar": "51.3698129805",
                "kilometers": "19755307.465761315",
                "miles": "12275378.842343547"
            },
            "orbiting_body": "Earth"
        },
        {
            "close_approach_date": "2006-07-30",
            "close_approach_date_full": "2006-Jul-30 18:24",
            "epoch_date_close_approach": 1154283840000,
            "relative_velocity": {
                "kilometers_per_second": "10.3614337839",
                "kilometers_per_hour": "37301.1616219792",
                "miles_per_hour": "23177.4912311681"
            },
            "miss_distance": {
                "astronomical": "0.3128323511",
                "lunar": "121.6917845779",
                "kilometers": "46799053.391652157",
                "miles": "29079583.3393754866"
            },
            "orbiting_body": "Earth"
        }
    ],
    "orbital_data": {
        "orbit_id": "14",
        "orbit_determination_date": "2017-04-06 09:12:31",
        "first_observation_date": "2004-08-09",
        "last_observation_date": "2004-09-08",
        "data_arc_in_days": 30,
        "observations_used": 65,
        "orbit_uncertainty": "7",
        "minimum_orbit_intersection": ".110772",
        "jupiter_tisserand_invariant": "4.318",
        "epoch_osculation": "2459000.5",
        "eccentricity": ".2950282027358955",
        "semi_major_axis": "1.568636298145035",
        "inclination": "17.40676220099695",
        "ascending_node_longitude": "318.0203510750441",
        "orbital_period": "717.5989876807478",
        "perihelion_distance": "1.105844350357017",
        "perihelion_argument": "335.0328620161063",
        "aphelion_distance": "2.031428245933053",
        "perihelion_time": "2458939.386596542829",
        "mean_anomaly": "30.6589413060454",
        "mean_motion": ".5016729485133558",
        "equinox": "J2000",
        "orbit_class": {
            "orbit_class_type": "AMO",
            "orbit_class_description": "Near-Earth asteroid orbits similar to that of 1221 Amor",
            "orbit_class_range": "1.017 AU < q (perihelion) < 1.3 AU"
        }
    },
    "is_sentry_object": false
}